[{"OBJECT_NAME":"STARLINK-36724","OBJECT_ID":"2026-036L","EPOCH":"2026-03-19T06:00:02.000160","MEAN_MOTION":15.50962599,"ECCENTRICITY":0.00011932,"INCLINATION":43.0007,"RA_OF_ASC_NODE":192.1036,"ARG_OF_PERICENTER":261.8701,"MEAN_ANOMALY":130.4866,"EPHEMERIS_TYPE":0,"CLASSIFICATION_TYPE":"U","NORAD_CAT_ID":67914,"ELEMENT_SET_NO":999,"REV_AT_EPOCH":518,"BSTAR":-0.011015012,"MEAN_MOTION_DOT":-0.00607004,"MEAN_MOTION_DDOT":0},{"OBJECT_NAME":"STARLINK-36723","OBJECT_ID":"2026-036M","EPOCH":"2026-03-19T06:00:02.000160","MEAN_MOTION":15.52917195,"ECCENTRICITY":0.00013547,"INCLINATION":43.0008,"RA_OF_ASC_NODE":192.0298,"ARG_OF_PERICENTER":278.6928,"MEAN_ANOMALY":143.9312,"EPHEMERIS_TYPE":0,"CLASSIFICATION_TYPE":"U","NORAD_CAT_ID":67915,"ELEMENT_SET_NO":999,"REV_AT_EPOCH":518,"BSTAR":-0.038027527,"MEAN_MOTION_DOT":-0.02149931,"MEAN_MOTION_DDOT":0},{"OBJECT_NAME":"STARLINK-36721","OBJECT_ID":"2026-036N","EPOCH":"2026-03-19T06:00:02.000160","MEAN_MOTION":15.52959756,"ECCENTRICITY":0.00012759,"INCLINATION":43.0008,"RA_OF_ASC_NODE":192.0059,"ARG_OF_PERICENTER":277.8508,"MEAN_ANOMALY":154.2103,"EPHEMERIS_TYPE":0,"CLASSIFICATION_TYPE":"U","NORAD_CAT_ID":67916,"ELEMENT_SET_NO":999,"REV_AT_EPOCH":518,"BSTAR":-0.038090219,"MEAN_MOTION_DOT":-0.02155988,"MEAN_MOTION_DDOT":0},{"OBJECT_NAME":"STARLINK-36722","OBJECT_ID":"2026-036P","EPOCH":"2026-03-19T06:00:02.000160","MEAN_MOTION":15.55886804,"ECCENTRICITY":0.00012857,"INCLINATION":43.0004,"RA_OF_ASC_NODE":191.8101,"ARG_OF_PERICENTER":277.3942,"MEAN_ANOMALY":233.5186,"EPHEMERIS_TYPE":0,"CLASSIFICATION_TYPE":"U","NORAD_CAT_ID":67917,"ELEMENT_SET_NO":999,"REV_AT_EPOCH":518,"BSTAR":-0.029831591,"MEAN_MOTION_DOT":-0.01876093,"MEAN_MOTION_DDOT":0},{"OBJECT_NAME":"STARLINK-36341","OBJECT_ID":"2026-036Q","EPOCH":"2026-03-19T06:00:02.000160","MEAN_MOTION":15.50595655,"ECCENTRICITY":0.00018392,"INCLINATION":43.0011,"RA_OF_ASC_NODE":192.9342,"ARG_OF_PERICENTER":269.4436,"MEAN_ANOMALY":145.2501,"EPHEMERIS_TYPE":0,"CLASSIFICATION_TYPE":"U","NORAD_CAT_ID":67918,"ELEMENT_SET_NO":999,"REV_AT_EPOCH":518,"BSTAR":-0.0006136301,"MEAN_MOTION_DOT":-0.00036197,"MEAN_MOTION_DDOT":0},{"OBJECT_NAME":"STARLINK-36663","OBJECT_ID":"2026-036R","EPOCH":"2026-03-19T06:00:02.000160","MEAN_MOTION":15.53488578,"ECCENTRICITY":8.312e-5,"INCLINATION":43.0008,"RA_OF_ASC_NODE":191.9665,"ARG_OF_PERICENTER":296.9078,"MEAN_ANOMALY":150.8058,"EPHEMERIS_TYPE":0,"CLASSIFICATION_TYPE":"U","NORAD_CAT_ID":67919,"ELEMENT_SET_NO":999,"REV_AT_EPOCH":518,"BSTAR":-0.042336173,"MEAN_MOTION_DOT":-0.0240576,"MEAN_MOTION_DDOT":0},{"OBJECT_NAME":"STARLINK-36375","OBJECT_ID":"2026-036S","EPOCH":"2026-03-19T06:00:02.000160","MEAN_MOTION":15.50608947,"ECCENTRICITY":0.00017247,"INCLINATION":43.0004,"RA_OF_ASC_NODE":192.3302,"ARG_OF_PERICENTER":256.4968,"MEAN_ANOMALY":44.2347,"EPHEMERIS_TYPE":0,"CLASSIFICATION_TYPE":"U","NORAD_CAT_ID":67920,"ELEMENT_SET_NO":999,"REV_AT_EPOCH":518,"BSTAR":-0.0010091808,"MEAN_MOTION_DOT":-0.00059164,"MEAN_MOTION_DDOT":0},{"OBJECT_NAME":"STARLINK-36405","OBJECT_ID":"2026-036T","EPOCH":"2026-03-19T06:00:02.000160","MEAN_MOTION":15.50520897,"ECCENTRICITY":0.00020581,"INCLINATION":43.001,"RA_OF_ASC_NODE":192.9006,"ARG_OF_PERICENTER":262.4973,"MEAN_ANOMALY":166.5098,"EPHEMERIS_TYPE":0,"CLASSIFICATION_TYPE":"U","NORAD_CAT_ID":67921,"ELEMENT_SET_NO":999,"REV_AT_EPOCH":518,"BSTAR":0.0013107525,"MEAN_MOTION_DOT":0.00077157,"MEAN_MOTION_DDOT":0},{"OBJECT_NAME":"STARLINK-36383","OBJECT_ID":"2026-036U","EPOCH":"2026-03-18T17:26:02.562720","MEAN_MOTION":15.82042938,"ECCENTRICITY":0.00015137,"INCLINATION":43.0001,"RA_OF_ASC_NODE":194.2338,"ARG_OF_PERICENTER":246.0133,"MEAN_ANOMALY":114.0581,"EPHEMERIS_TYPE":0,"CLASSIFICATION_TYPE":"U","NORAD_CAT_ID":67922,"ELEMENT_SET_NO":999,"REV_AT_EPOCH":510,"BSTAR":0.0021844407,"MEAN_MOTION_DOT":0.0048689,"MEAN_MOTION_DDOT":0},{"OBJECT_NAME":"STARLINK-36406","OBJECT_ID":"2026-036V","EPOCH":"2026-03-19T00:00:00.999648","MEAN_MOTION":15.50533902,"ECCENTRICITY":0.00020691,"INCLINATION":43.0008,"RA_OF_ASC_NODE":194.6399,"ARG_OF_PERICENTER":280.5379,"MEAN_ANOMALY":78.9707,"EPHEMERIS_TYPE":0,"CLASSIFICATION_TYPE":"U","NORAD_CAT_ID":67923,"ELEMENT_SET_NO":999,"REV_AT_EPOCH":514,"BSTAR":0.00027561374,"MEAN_MOTION_DOT":0.00015834,"MEAN_MOTION_DDOT":0},{"OBJECT_NAME":"STARLINK-36714","OBJECT_ID":"2026-036W","EPOCH":"2026-03-19T06:00:02.000160","MEAN_MOTION":15.50518401,"ECCENTRICITY":0.00015771,"INCLINATION":43.0002,"RA_OF_ASC_NODE":192.2447,"ARG_OF_PERICENTER":283.1373,"MEAN_ANOMALY":51.0465,"EPHEMERIS_TYPE":0,"CLASSIFICATION_TYPE":"U","NORAD_CAT_ID":67924,"ELEMENT_SET_NO":999,"REV_AT_EPOCH":518,"BSTAR":0.0014301727,"MEAN_MOTION_DOT":0.00084286,"MEAN_MOTION_DDOT":0},{"OBJECT_NAME":"STARLINK-36726","OBJECT_ID":"2026-036X","EPOCH":"2026-03-19T06:00:02.000160","MEAN_MOTION":15.50528145,"ECCENTRICITY":0.00015193,"INCLINATION":43.0011,"RA_OF_ASC_NODE":192.8728,"ARG_OF_PERICENTER":265.8608,"MEAN_ANOMALY":173.9631,"EPHEMERIS_TYPE":0,"CLASSIFICATION_TYPE":"U","NORAD_CAT_ID":67925,"ELEMENT_SET_NO":999,"REV_AT_EPOCH":518,"BSTAR":0.0012463633,"MEAN_MOTION_DOT":0.00073331,"MEAN_MOTION_DDOT":0},{"OBJECT_NAME":"STARLINK-36758","OBJECT_ID":"2026-036Y","EPOCH":"2026-03-19T06:00:02.000160","MEAN_MOTION":15.5052349,"ECCENTRICITY":0.00016434,"INCLINATION":43.0003,"RA_OF_ASC_NODE":192.3939,"ARG_OF_PERICENTER":275.6535,"MEAN_ANOMALY":357.9111,"EPHEMERIS_TYPE":0,"CLASSIFICATION_TYPE":"U","NORAD_CAT_ID":67926,"ELEMENT_SET_NO":999,"REV_AT_EPOCH":518,"BSTAR":0.0013168253,"MEAN_MOTION_DOT":0.00077526,"MEAN_MOTION_DDOT":0},{"OBJECT_NAME":"STARLINK-36728","OBJECT_ID":"2026-036Z","EPOCH":"2026-03-19T06:00:02.000160","MEAN_MOTION":15.50514975,"ECCENTRICITY":0.00015954,"INCLINATION":43.0004,"RA_OF_ASC_NODE":192.1434,"ARG_OF_PERICENTER":299.1263,"MEAN_ANOMALY":75.739,"EPHEMERIS_TYPE":0,"CLASSIFICATION_TYPE":"U","NORAD_CAT_ID":67927,"ELEMENT_SET_NO":999,"REV_AT_EPOCH":518,"BSTAR":0.0013711993,"MEAN_MOTION_DOT":0.0008075,"MEAN_MOTION_DDOT":0},{"OBJECT_NAME":"STARLINK-36771","OBJECT_ID":"2026-036AA","EPOCH":"2026-03-19T06:00:02.000160","MEAN_MOTION":15.50526387,"ECCENTRICITY":0.00014732,"INCLINATION":43.0004,"RA_OF_ASC_NODE":192.2719,"ARG_OF_PERICENTER":264.8455,"MEAN_ANOMALY":58.2216,"EPHEMERIS_TYPE":0,"CLASSIFICATION_TYPE":"U","NORAD_CAT_ID":67928,"ELEMENT_SET_NO":999,"REV_AT_EPOCH":518,"BSTAR":0.0013961845,"MEAN_MOTION_DOT":0.00082277,"MEAN_MOTION_DDOT":0},{"OBJECT_NAME":"STARLINK-36809","OBJECT_ID":"2026-036AB","EPOCH":"2026-03-19T06:00:02.000160","MEAN_MOTION":15.5054463,"ECCENTRICITY":0.00015546,"INCLINATION":43.0004,"RA_OF_ASC_NODE":192.2488,"ARG_OF_PERICENTER":253.5452,"MEAN_ANOMALY":78.6249,"EPHEMERIS_TYPE":0,"CLASSIFICATION_TYPE":"U","NORAD_CAT_ID":67929,"ELEMENT_SET_NO":999,"REV_AT_EPOCH":518,"BSTAR":0.0013761718,"MEAN_MOTION_DOT":0.00081133,"MEAN_MOTION_DDOT":0}]
