STARLINK-36724          
1 67914U 26036L   26078.25002315 -.00607004  00000+0 -11015-1 0  9992
2 67914  43.0007 192.1036 0001193 261.8701 130.4866 15.50962599  5187
STARLINK-36723          
1 67915U 26036M   26078.25002315 -.02149931  00000+0 -38028-1 0  9998
2 67915  43.0008 192.0298 0001354 278.6928 143.9312 15.52917195  5183
STARLINK-36721          
1 67916U 26036N   26078.25002315 -.02155988  00000+0 -38090-1 0  9997
2 67916  43.0008 192.0059 0001275 277.8508 154.2103 15.52959756  5188
STARLINK-36722          
1 67917U 26036P   26078.25002315 -.01876093  00000+0 -29832-1 0  9998
2 67917  43.0004 191.8101 0001285 277.3942 233.5186 15.55886804  5186
STARLINK-36341          
1 67918U 26036Q   26078.25002315 -.00036197  00000+0 -61363-3 0  9998
2 67918  43.0011 192.9342 0001839 269.4436 145.2501 15.50595655  5185
STARLINK-36663          
1 67919U 26036R   26078.25002315 -.02405760  00000+0 -42336-1 0  9994
2 67919  43.0008 191.9665 0000831 296.9078 150.8058 15.53488578  5184
STARLINK-36375          
1 67920U 26036S   26078.25002315 -.00059164  00000+0 -10092-2 0  9992
2 67920  43.0004 192.3302 0001724 256.4968  44.2347 15.50608947  5184
STARLINK-36405          
1 67921U 26036T   26078.25002315  .00077157  00000+0  13108-2 0  9994
2 67921  43.0010 192.9006 0002058 262.4973 166.5098 15.50520897  5181
STARLINK-36383          
1 67922U 26036U   26077.72641855  .00486890  00000+0  21844-2 0  9998
2 67922  43.0001 194.2338 0001513 246.0133 114.0581 15.82042938  5103
STARLINK-36406          
1 67923U 26036V   26078.00001157  .00015834  00000+0  27561-3 0  9995
2 67923  43.0008 194.6399 0002069 280.5379  78.9707 15.50533902  5147
STARLINK-36714          
1 67924U 26036W   26078.25002315  .00084286  00000+0  14302-2 0  9995
2 67924  43.0002 192.2447 0001577 283.1373  51.0465 15.50518401  5180
STARLINK-36726          
1 67925U 26036X   26078.25002315  .00073331  00000+0  12464-2 0  9992
2 67925  43.0011 192.8728 0001519 265.8608 173.9631 15.50528145  5188
STARLINK-36758          
1 67926U 26036Y   26078.25002315  .00077526  00000+0  13168-2 0  9995
2 67926  43.0003 192.3939 0001643 275.6535 357.9111 15.50523490  5180
STARLINK-36728          
1 67927U 26036Z   26078.25002315  .00080750  00000+0  13712-2 0  9994
2 67927  43.0004 192.1434 0001595 299.1263  75.7390 15.50514975  5187
STARLINK-36771          
1 67928U 26036AA  26078.25002315  .00082277  00000+0  13962-2 0  9998
2 67928  43.0004 192.2719 0001473 264.8455  58.2216 15.50526387  5185
STARLINK-36809          
1 67929U 26036AB  26078.25002315  .00081133  00000+0  13762-2 0  9997
2 67929  43.0004 192.2488 0001554 253.5452  78.6249 15.50544630  5184
